{
  "type": "FeatureCollection",
  "features": [
    {
      "type": "Feature",
      "properties": {
        "norad_id": 66551,
        "name": "UNKNOWN",
        "group": "last-30-days",
        "lat": -51.97709554482895,
        "lon": 154.49290580850854,
        "alt_km": 332.739109088624,
        "timestamp": "2025-12-04T09:47:36.302953+00:00",
        "meta_object_name": "UNKNOWN",
        "meta_object_id": "2025-271AE",
        "meta_epoch": "2025-12-02T16:00:03.000096",
        "meta_mean_motion": 15.87051116,
        "meta_eccentricity": 7.17e-05,
        "meta_inclination": 53.1571,
        "meta_ra_of_asc_node": 236.7807,
        "meta_arg_of_pericenter": 110.7411,
        "meta_mean_anomaly": 313.9012,
        "meta_ephemeris_type": 0,
        "meta_classification_type": "U",
        "meta_norad_cat_id": 66551,
        "meta_element_set_no": 999,
        "meta_rev_at_epoch": 262,
        "meta_bstar": -0.0074303,
        "meta_mean_motion_dot": -0.01709685,
        "meta_mean_motion_ddot": 0,
        "tle_line1": "1 66551U 25271AE  25336.66670139 -.01709685  00000+0 -74303-2 0  9993",
        "tle_line2": "2 66551  53.1571 236.7807 0000717 110.7411 313.9012 15.87051116  2624"
      },
      "geometry": {
        "type": "Point",
        "coordinates": [
          154.49290580850854,
          -51.97709554482895
        ]
      }
    },
    {
      "type": "Feature",
      "properties": {
        "norad_id": 66554,
        "name": "GLOBAL-33",
        "group": "last-30-days",
        "lat": 20.960068893087392,
        "lon": -100.09906839697378,
        "alt_km": 471.8494424688497,
        "timestamp": "2025-12-04T09:47:36.302964+00:00",
        "meta_object_name": "GLOBAL-33",
        "meta_object_id": "2025-267A",
        "meta_epoch": "2025-12-03T15:55:59.187936",
        "meta_mean_motion": 15.31290639,
        "meta_eccentricity": 0.00054725,
        "meta_inclination": 42.0185,
        "meta_ra_of_asc_node": 109.3766,
        "meta_arg_of_pericenter": 347.7557,
        "meta_mean_anomaly": 12.3147,
        "meta_ephemeris_type": 0,
        "meta_classification_type": "U",
        "meta_norad_cat_id": 66554,
        "meta_element_set_no": 999,
        "meta_rev_at_epoch": 201,
        "meta_bstar": 0.00057636031,
        "meta_mean_motion_dot": 0.00017592,
        "meta_mean_motion_ddot": 0,
        "tle_line1": "1 66554U 25267A   25337.66387949  .00017592  00000+0  57636-3 0  9993",
        "tle_line2": "2 66554  42.0185 109.3766 0005472 347.7557  12.3147 15.31290639  2016"
      },
      "geometry": {
        "type": "Point",
        "coordinates": [
          -100.09906839697378,
          20.960068893087392
        ]
      }
    },
    {
      "type": "Feature",
      "properties": {
        "norad_id": 66555,
        "name": "ELECTRON KICK STAGE R/B",
        "group": "last-30-days",
        "lat": -1.6252469779952814,
        "lon": -73.19466418512611,
        "alt_km": 474.1039747681525,
        "timestamp": "2025-12-04T09:47:36.302974+00:00",
        "meta_object_name": "ELECTRON KICK STAGE R/B",
        "meta_object_id": "2025-267B",
        "meta_epoch": "2025-12-03T18:55:15.803040",
        "meta_mean_motion": 15.32151362,
        "meta_eccentricity": 0.00073754,
        "meta_inclination": 42.0173,
        "meta_ra_of_asc_node": 108.5814,
        "meta_arg_of_pericenter": 348.2013,
        "meta_mean_anomaly": 11.8651,
        "meta_ephemeris_type": 0,
        "meta_classification_type": "U",
        "meta_norad_cat_id": 66555,
        "meta_element_set_no": 999,
        "meta_rev_at_epoch": 203,
        "meta_bstar": 0.0011201212,
        "meta_mean_motion_dot": 0.00035471,
        "meta_mean_motion_ddot": 0,
        "tle_line1": "1 66555U 25267B   25337.78837735  .00035471  00000+0  11201-2 0  9993",
        "tle_line2": "2 66555  42.0173 108.5814 0007375 348.2013  11.8651 15.32151362  2032"
      },
      "geometry": {
        "type": "Point",
        "coordinates": [
          -73.19466418512611,
          -1.6252469779952814
        ]
      }
    },
    {
      "type": "Feature",
      "properties": {
        "norad_id": 66557,
        "name": "STARLINK-35699",
        "group": "last-30-days",
        "lat": 17.72925772883518,
        "lon": -29.699077522099557,
        "alt_km": 353.13222875863175,
        "timestamp": "2025-12-04T09:47:36.302985+00:00",
        "meta_object_name": "STARLINK-35699",
        "meta_object_id": "2025-268A",
        "meta_epoch": "2025-12-04T04:00:03.000096",
        "meta_mean_motion": 15.72320582,
        "meta_eccentricity": 0.0001559,
        "meta_inclination": 42.9989,
        "meta_ra_of_asc_node": 171.8246,
        "meta_arg_of_pericenter": 271.3697,
        "meta_mean_anomaly": 314.6542,
        "meta_ephemeris_type": 0,
        "meta_classification_type": "U",
        "meta_norad_cat_id": 66557,
        "meta_element_set_no": 999,
        "meta_rev_at_epoch": 329,
        "meta_bstar": -0.015995,
        "meta_mean_motion_dot": -0.01936819,
        "meta_mean_motion_ddot": 0,
        "tle_line1": "1 66557U 25268A   25338.16670139 -.01936819  00000+0 -15995-1 0  9994",
        "tle_line2": "2 66557  42.9989 171.8246 0001559 271.3697 314.6542 15.72320582  3290"
      },
      "geometry": {
        "type": "Point",
        "coordinates": [
          -29.699077522099557,
          17.72925772883518
        ]
      }
    },
    {
      "type": "Feature",
      "properties": {
        "norad_id": 66558,
        "name": "STARLINK-35695",
        "group": "last-30-days",
        "lat": 16.49695965287891,
        "lon": -28.167387588719066,
        "alt_km": 353.42524806020174,
        "timestamp": "2025-12-04T09:47:36.302995+00:00",
        "meta_object_name": "STARLINK-35695",
        "meta_object_id": "2025-268B",
        "meta_epoch": "2025-12-03T22:00:03.000096",
        "meta_mean_motion": 15.7330656,
        "meta_eccentricity": 0.0001499,
        "meta_inclination": 42.9991,
        "meta_ra_of_asc_node": 173.3339,
        "meta_arg_of_pericenter": 276.9249,
        "meta_mean_anomaly": 333.7784,
        "meta_ephemeris_type": 0,
        "meta_classification_type": "U",
        "meta_norad_cat_id": 66558,
        "meta_element_set_no": 999,
        "meta_rev_at_epoch": 325,
        "meta_bstar": -0.014789171,
        "meta_mean_motion_dot": -0.01840122,
        "meta_mean_motion_ddot": 0,
        "tle_line1": "1 66558U 25268B   25337.91670139 -.01840122  00000+0 -14789-1 0  9998",
        "tle_line2": "2 66558  42.9991 173.3339 0001499 276.9249 333.7784 15.73306560  3258"
      },
      "geometry": {
        "type": "Point",
        "coordinates": [
          -28.167387588719066,
          16.49695965287891
        ]
      }
    },
    {
      "type": "Feature",
      "properties": {
        "norad_id": 66559,
        "name": "STARLINK-35419",
        "group": "last-30-days",
        "lat": 15.25284807053749,
        "lon": -26.656459600249892,
        "alt_km": 353.53437623426817,
        "timestamp": "2025-12-04T09:47:36.303007+00:00",
        "meta_object_name": "STARLINK-35419",
        "meta_object_id": "2025-268C",
        "meta_epoch": "2025-12-03T22:00:03.000096",
        "meta_mean_motion": 15.73313125,
        "meta_eccentricity": 0.00015495,
        "meta_inclination": 42.999,
        "meta_ra_of_asc_node": 173.3293,
        "meta_arg_of_pericenter": 273.3319,
        "meta_mean_anomaly": 339.2876,
        "meta_ephemeris_type": 0,
        "meta_classification_type": "U",
        "meta_norad_cat_id": 66559,
        "meta_element_set_no": 999,
        "meta_rev_at_epoch": 325,
        "meta_bstar": -0.014877294,
        "meta_mean_motion_dot": -0.01850153,
        "meta_mean_motion_ddot": 0,
        "tle_line1": "1 66559U 25268C   25337.91670139 -.01850153  00000+0 -14877-1 0  9992",
        "tle_line2": "2 66559  42.9990 173.3293 0001549 273.3319 339.2876 15.73313125  3250"
      },
      "geometry": {
        "type": "Point",
        "coordinates": [
          -26.656459600249892,
          15.25284807053749
        ]
      }
    },
    {
      "type": "Feature",
      "properties": {
        "norad_id": 66560,
        "name": "STARLINK-35411",
        "group": "last-30-days",
        "lat": 13.997324791801239,
        "lon": -25.161947499441506,
        "alt_km": 353.63449131460857,
        "timestamp": "2025-12-04T09:47:36.303035+00:00",
        "meta_object_name": "STARLINK-35411",
        "meta_object_id": "2025-268D",
        "meta_epoch": "2025-12-03T22:00:03.000096",
        "meta_mean_motion": 15.7333406,
        "meta_eccentricity": 0.00014332,
        "meta_inclination": 42.9991,
        "meta_ra_of_asc_node": 173.3245,
        "meta_arg_of_pericenter": 272.2737,
        "meta_mean_anomaly": 342.2455,
        "meta_ephemeris_type": 0,
        "meta_classification_type": "U",
        "meta_norad_cat_id": 66560,
        "meta_element_set_no": 999,
        "meta_rev_at_epoch": 325,
        "meta_bstar": -0.015034889,
        "meta_mean_motion_dot": -0.01868529,
        "meta_mean_motion_ddot": 0,
        "tle_line1": "1 66560U 25268D   25337.91670139 -.01868529  00000+0 -15035-1 0  9997",
        "tle_line2": "2 66560  42.9991 173.3245 0001433 272.2737 342.2455 15.73334060  3252"
      },
      "geometry": {
        "type": "Point",
        "coordinates": [
          -25.161947499441506,
          13.997324791801239
        ]
      }
    }
  ]
}